GPS BIIR-2  (PRN 13)    
1 24876U 97035A   17318.63947208 -.00000026  00000-0  00000+0 0  9998
2 24876  55.5196 221.1947 0033801  96.7846 263.6476  2.00565134148846
GPS BIIR-3  (PRN 11)    
1 25933U 99055A   17319.33413031 -.00000072  00000-0  00000+0 0  9998
2 25933  51.7395  71.0257 0167349  98.5292 330.2454  2.00555084132670
GPS BIIR-4  (PRN 20)    
1 26360U 00025A   17319.57115295  .00000074  00000-0  00000+0 0  9990
2 26360  53.1458 148.5746 0044234  98.6774 243.7879  2.00553370128374
GPS BIIR-5  (PRN 28)    
1 26407U 00040A   17319.38097523 -.00000063  00000-0  00000+0 0  9990
2 26407  56.5796 339.2499 0202034 271.1119 218.5403  2.00565286127042
GPS BIIR-6  (PRN 14)    
1 26605U 00071A   17319.47334925 -.00000012  00000-0  00000+0 0  9998
2 26605  55.0913 218.8354 0094824 248.8049 214.7752  2.00558770124657
GPS BIIR-7  (PRN 18)    
1 26690U 01004A   17319.34446049  .00000076  00000-0  00000+0 0  9995
2 26690  53.0652 151.5119 0183774 258.5772 226.0575  2.00567074123043
GPS BIIR-8  (PRN 16)    
1 27663U 03005A   17319.20220751 -.00000062  00000-0  00000+0 0  9990
2 27663  56.6467 339.0047 0093516  24.2865  88.6983  2.00580245108408
GPS BIIR-9  (PRN 21)    
1 27704U 03010A   17318.66239959 -.00000019  00000-0  00000+0 0  9993
2 27704  53.9534  91.9779 0243258 266.8448 145.8854  2.00575439107193
GPS BIIR-10 (PRN 22)    
1 28129U 03058A   17318.83396246  .00000076  00000-0  00000+0 0  9991
2 28129  52.9567 151.5068 0073652 265.2389  93.9838  2.00562989101892
GPS BIIR-11 (PRN 19)    
1 28190U 04009A   17319.47032718 -.00000099  00000-0  00000+0 0  9994
2 28190  56.0806  39.9376 0096263  62.0808  41.7990  2.00562537100083
GPS BIIR-12 (PRN 23)    
1 28361U 04023A   17319.30839345 -.00000005  00000-0  00000+0 0  9990
2 28361  54.0830 213.8006 0119973 222.4964  34.9024  2.00566096 98161
GPS BIIR-13 (PRN 02)    
1 28474U 04045A   17319.47079253 -.00000027  00000-0  00000+0 0  9995
2 28474  54.3290  91.4751 0175185 249.1654 129.6027  2.00569452 95537
GPS BIIRM-1 (PRN 17)    
1 28874U 05038A   17319.23046605 -.00000099  00000-0  00000+0 0  9990
2 28874  56.2308  37.2298 0123702 255.4152  56.7851  2.00559325 88936
GPS BIIRM-2 (PRN 31)    
1 29486U 06042A   17319.50735269 -.00000069  00000-0  00000+0 0  9994
2 29486  55.3067 276.2309 0087944 345.9308  83.4957  2.00577359 81654
GPS BIIRM-3 (PRN 12)    
1 29601U 06052A   17319.35182804 -.00000062  00000-0  00000+0 0  9991
2 29601  56.6206 337.9166 0063925  50.7524 309.8581  2.00562252 80565
GPS BIIRM-4 (PRN 15)    
1 32260U 07047A   17319.16747776 -.00000000  00000-0  00000+0 0  9997
2 32260  53.2083 210.0203 0097762  35.1607 325.5500  2.00566189 73947
GPS BIIRM-5 (PRN 29)    
1 32384U 07062A   17318.89460292 -.00000100  00000-0  00000+0 0  9996
2 32384  56.2989  37.8353 0002719  29.3225 272.9839  2.00551933 72661
GPS BIIRM-6 (PRN 07)    
1 32711U 08012A   17319.07866368 -.00000068  00000-0  00000+0 0  9994
2 32711  55.0372 275.5786 0112251 215.0325 144.2037  2.00558982 70858
GPS BIIRM-8 (PRN 05)    
1 35752U 09043A   17319.52117140  .00000079  00000-0  00000+0 0  9995
2 35752  54.2750 153.3803 0051504  33.6485 312.6035  2.00572942 60449
GPS BIIF-1  (PRN 25)    
1 36585U 10022A   17318.88799087 -.00000060  00000-0  00000+0 0  9994
2 36585  55.9210 334.6474 0065087  44.8679 310.2497  2.00557637 54680
GPS BIIF-2  (PRN 01)    
1 37753U 11036A   17319.33445753 -.00000016  00000-0  00000+0 0  9998
2 37753  55.5322  94.7483 0069916  34.7415   8.5004  2.00563127 46372
GPS BIIF-3  (PRN 24)    
1 38833U 12053A   17318.76498828 -.00000069  00000-0  00000+0 0  9993
2 38833  54.0662 272.3599 0061789  25.4066 334.8746  2.00563855 37437
GPS BIIF-4  (PRN 27)    
1 39166U 13023A   17319.11689634 -.00000100  00000-0  00000+0 0  9994
2 39166  55.9343  34.2003 0049602  18.7416 341.4720  2.00563798 32978
GPS BIIF-5  (PRN 30)    
1 39533U 14008A   17319.11770705 -.00000070  00000-0  00000+0 0  9992
2 39533  54.2168 277.6639 0030460 189.1026 170.8210  2.00571284 27334
GPS BIIF-6  (PRN 06)    
1 39741U 14026A   17319.40292998 -.00000018  00000-0  00000+0 0  9990
2 39741  55.5177  94.2673 0008564 282.6640  77.2171  2.00550660 25622
GPS BIIF-7  (PRN 09)    
1 40105U 14045A   17319.48983641 -.00000002  00000-0  00000+0 0  9990
2 40105  54.6076 213.7818 0007823 103.3321 256.8201  2.00555901 24077
GPS BIIF-8  (PRN 03)    
1 40294U 14068A   17319.36257719  .00000082  00000-0  00000+0 0  9998
2 40294  55.0241 154.4852 0010122  22.2973 337.8163  2.00569912 22298
GPS BIIF-9  (PRN 26)    
1 40534U 15013A   17319.00421851 -.00000064  00000-0  00000+0 0  9998
2 40534  54.8702 333.5847 0022540 349.2026  10.7866  2.00576686 19352
GPS BIIF-10  (PRN 08)   
1 40730U 15033A   17318.66047544 -.00000101  00000-0  00000+0 0  9994
2 40730  55.4670  33.8215 0030039 319.9907  39.8195  2.00558666 17100
GPS BIIF-11  (PRN 10)   
1 41019U 15062A   17318.71350097  .00000082  00000-0  00000+0 0  9990
2 41019  55.0314 154.3055 0030049 198.6313 161.3276  2.00563934 14929
GPS BIIF-12  (PRN 32)   
1 41328U 16007A   17319.30306274 -.00000005  00000-0  00000+0 0  9993
2 41328  54.8621 214.0207 0016007 216.6959 143.2581  2.00571307 12994
